[{"OBJECT_NAME":"TDRS 3","OBJECT_ID":"1988-091B","EPOCH":"2026-03-28T02:34:15.649248","MEAN_MOTION":1.00269546,"ECCENTRICITY":0.00425433,"INCLINATION":12.6635,"RA_OF_ASC_NODE":341.5377,"ARG_OF_PERICENTER":354.8893,"MEAN_ANOMALY":198.7533,"EPHEMERIS_TYPE":0,"CLASSIFICATION_TYPE":"U","NORAD_CAT_ID":19548,"ELEMENT_SET_NO":999,"REV_AT_EPOCH":12457,"BSTAR":0,"MEAN_MOTION_DOT":-3.12e-6,"MEAN_MOTION_DDOT":0},{"OBJECT_NAME":"HST","OBJECT_ID":"1990-037B","EPOCH":"2026-03-28T14:27:30.731328","MEAN_MOTION":15.29770791,"ECCENTRICITY":0.00016798,"INCLINATION":28.472,"RA_OF_ASC_NODE":270.956,"ARG_OF_PERICENTER":347.9689,"MEAN_ANOMALY":12.0867,"EPHEMERIS_TYPE":0,"CLASSIFICATION_TYPE":"U","NORAD_CAT_ID":20580,"ELEMENT_SET_NO":999,"REV_AT_EPOCH":77621,"BSTAR":0.00029759061,"MEAN_MOTION_DOT":9.067e-5,"MEAN_MOTION_DDOT":0},{"OBJECT_NAME":"TDRS 5","OBJECT_ID":"1991-054B","EPOCH":"2026-03-28T06:08:02.404032","MEAN_MOTION":1.00275572,"ECCENTRICITY":0.0009589,"INCLINATION":14.0818,"RA_OF_ASC_NODE":354.3784,"ARG_OF_PERICENTER":279.2122,"MEAN_ANOMALY":196.4212,"EPHEMERIS_TYPE":0,"CLASSIFICATION_TYPE":"U","NORAD_CAT_ID":21639,"ELEMENT_SET_NO":999,"REV_AT_EPOCH":12690,"BSTAR":0,"MEAN_MOTION_DOT":7.2e-7,"MEAN_MOTION_DDOT":0},{"OBJECT_NAME":"TDRS 6","OBJECT_ID":"1993-003B","EPOCH":"2026-03-28T07:05:15.859680","MEAN_MOTION":1.00270087,"ECCENTRICITY":0.0005032,"INCLINATION":14.1817,"RA_OF_ASC_NODE":357.6591,"ARG_OF_PERICENTER":185.6815,"MEAN_ANOMALY":62.8575,"EPHEMERIS_TYPE":0,"CLASSIFICATION_TYPE":"U","NORAD_CAT_ID":22314,"ELEMENT_SET_NO":999,"REV_AT_EPOCH":12159,"BSTAR":0,"MEAN_MOTION_DOT":-3.08e-6,"MEAN_MOTION_DDOT":0},{"OBJECT_NAME":"TDRS 7","OBJECT_ID":"1995-035B","EPOCH":"2026-03-28T14:44:38.675328","MEAN_MOTION":1.00270142,"ECCENTRICITY":0.00092156,"INCLINATION":13.4109,"RA_OF_ASC_NODE":348.743,"ARG_OF_PERICENTER":53.989,"MEAN_ANOMALY":93.5255,"EPHEMERIS_TYPE":0,"CLASSIFICATION_TYPE":"U","NORAD_CAT_ID":23613,"ELEMENT_SET_NO":999,"REV_AT_EPOCH":11244,"BSTAR":0,"MEAN_MOTION_DOT":-2.51e-6,"MEAN_MOTION_DDOT":0},{"OBJECT_NAME":"ISS (ZARYA)","OBJECT_ID":"1998-067A","EPOCH":"2026-03-28T11:41:48.111360","MEAN_MOTION":15.486078,"ECCENTRICITY":0.0006231,"INCLINATION":51.6344,"RA_OF_ASC_NODE":339.4313,"ARG_OF_PERICENTER":242.6596,"MEAN_ANOMALY":117.3758,"EPHEMERIS_TYPE":0,"CLASSIFICATION_TYPE":"U","NORAD_CAT_ID":25544,"ELEMENT_SET_NO":999,"REV_AT_EPOCH":55924,"BSTAR":0.00022419,"MEAN_MOTION_DOT":0.00011758,"MEAN_MOTION_DDOT":0},{"OBJECT_NAME":"TERRA","OBJECT_ID":"1999-068A","EPOCH":"2026-03-28T15:16:30.863712","MEAN_MOTION":14.61034278,"ECCENTRICITY":0.0003569,"INCLINATION":97.9553,"RA_OF_ASC_NODE":140.3437,"ARG_OF_PERICENTER":111.9893,"MEAN_ANOMALY":49.4323,"EPHEMERIS_TYPE":0,"CLASSIFICATION_TYPE":"U","NORAD_CAT_ID":25994,"ELEMENT_SET_NO":999,"REV_AT_EPOCH":39784,"BSTAR":9.7815553e-5,"MEAN_MOTION_DOT":4.36e-6,"MEAN_MOTION_DDOT":0},{"OBJECT_NAME":"TDRS 8","OBJECT_ID":"2000-034A","EPOCH":"2026-03-28T08:20:34.937376","MEAN_MOTION":1.00271944,"ECCENTRICITY":0.00059627,"INCLINATION":12.5576,"RA_OF_ASC_NODE":31.9964,"ARG_OF_PERICENTER":325.825,"MEAN_ANOMALY":37.9937,"EPHEMERIS_TYPE":0,"CLASSIFICATION_TYPE":"U","NORAD_CAT_ID":26388,"ELEMENT_SET_NO":999,"REV_AT_EPOCH":9437,"BSTAR":0,"MEAN_MOTION_DOT":-2.08e-6,"MEAN_MOTION_DDOT":0},{"OBJECT_NAME":"TIMED","OBJECT_ID":"2001-055B","EPOCH":"2026-03-28T13:59:41.776224","MEAN_MOTION":14.95083804,"ECCENTRICITY":0.00027733,"INCLINATION":74.0688,"RA_OF_ASC_NODE":37.2897,"ARG_OF_PERICENTER":251.5104,"MEAN_ANOMALY":108.5779,"EPHEMERIS_TYPE":0,"CLASSIFICATION_TYPE":"U","NORAD_CAT_ID":26998,"ELEMENT_SET_NO":999,"REV_AT_EPOCH":31877,"BSTAR":0.00015647669,"MEAN_MOTION_DOT":1.676e-5,"MEAN_MOTION_DDOT":0},{"OBJECT_NAME":"AQUA","OBJECT_ID":"2002-022A","EPOCH":"2026-03-28T14:05:14.237376","MEAN_MOTION":14.62019053,"ECCENTRICITY":0.00011253,"INCLINATION":98.4205,"RA_OF_ASC_NODE":55.3007,"ARG_OF_PERICENTER":117.9874,"MEAN_ANOMALY":11.4525,"EPHEMERIS_TYPE":0,"CLASSIFICATION_TYPE":"U","NORAD_CAT_ID":27424,"ELEMENT_SET_NO":999,"REV_AT_EPOCH":27149,"BSTAR":0.00021489412,"MEAN_MOTION_DOT":1.029e-5,"MEAN_MOTION_DDOT":0},{"OBJECT_NAME":"SORCE","OBJECT_ID":"2003-004A","EPOCH":"2026-03-28T04:03:09.482400","MEAN_MOTION":15.0323487,"ECCENTRICITY":0.00174026,"INCLINATION":39.9926,"RA_OF_ASC_NODE":3.7575,"ARG_OF_PERICENTER":195.1511,"MEAN_ANOMALY":164.8763,"EPHEMERIS_TYPE":0,"CLASSIFICATION_TYPE":"U","NORAD_CAT_ID":27651,"ELEMENT_SET_NO":999,"REV_AT_EPOCH":25970,"BSTAR":0.00026754055,"MEAN_MOTION_DOT":3.548e-5,"MEAN_MOTION_DDOT":0},{"OBJECT_NAME":"AURA","OBJECT_ID":"2004-026A","EPOCH":"2026-03-28T14:19:54.598944","MEAN_MOTION":14.61190914,"ECCENTRICITY":0.00012998,"INCLINATION":98.334,"RA_OF_ASC_NODE":43.4268,"ARG_OF_PERICENTER":94.4221,"MEAN_ANOMALY":265.7128,"EPHEMERIS_TYPE":0,"CLASSIFICATION_TYPE":"U","NORAD_CAT_ID":28376,"ELEMENT_SET_NO":999,"REV_AT_EPOCH":15444,"BSTAR":0.00021688187,"MEAN_MOTION_DOT":1.02e-5,"MEAN_MOTION_DDOT":0},{"OBJECT_NAME":"SWIFT","OBJECT_ID":"2004-047A","EPOCH":"2026-03-28T05:11:07.731744","MEAN_MOTION":15.6097486,"ECCENTRICITY":0.00031449,"INCLINATION":20.5537,"RA_OF_ASC_NODE":86.0328,"ARG_OF_PERICENTER":260.3075,"MEAN_ANOMALY":99.7015,"EPHEMERIS_TYPE":0,"CLASSIFICATION_TYPE":"U","NORAD_CAT_ID":28485,"ELEMENT_SET_NO":999,"REV_AT_EPOCH":17416,"BSTAR":0.00057307482,"MEAN_MOTION_DOT":0.00051322,"MEAN_MOTION_DDOT":0},{"OBJECT_NAME":"THEMIS A","OBJECT_ID":"2007-004A","EPOCH":"2026-03-27T18:52:49.717056","MEAN_MOTION":0.87845702,"ECCENTRICITY":0.83940209,"INCLINATION":7.1462,"RA_OF_ASC_NODE":117.3649,"ARG_OF_PERICENTER":182.7812,"MEAN_ANOMALY":163.4262,"EPHEMERIS_TYPE":0,"CLASSIFICATION_TYPE":"U","NORAD_CAT_ID":30580,"ELEMENT_SET_NO":999,"REV_AT_EPOCH":4056,"BSTAR":-0.001430892,"MEAN_MOTION_DOT":9.0e-8,"MEAN_MOTION_DDOT":0},{"OBJECT_NAME":"THEMIS D","OBJECT_ID":"2007-004D","EPOCH":"2026-03-28T13:20:58.566624","MEAN_MOTION":0.87834989,"ECCENTRICITY":0.83480994,"INCLINATION":6.9035,"RA_OF_ASC_NODE":83.7133,"ARG_OF_PERICENTER":219.2608,"MEAN_ANOMALY":33.0857,"EPHEMERIS_TYPE":0,"CLASSIFICATION_TYPE":"U","NORAD_CAT_ID":30797,"ELEMENT_SET_NO":999,"REV_AT_EPOCH":4036,"BSTAR":0,"MEAN_MOTION_DOT":-4.8e-7,"MEAN_MOTION_DDOT":0},{"OBJECT_NAME":"THEMIS E","OBJECT_ID":"2007-004E","EPOCH":"2026-03-22T02:34:14.937312","MEAN_MOTION":0.87837115,"ECCENTRICITY":0.83542441,"INCLINATION":4.4028,"RA_OF_ASC_NODE":99.1325,"ARG_OF_PERICENTER":204.1504,"MEAN_ANOMALY":168.435,"EPHEMERIS_TYPE":0,"CLASSIFICATION_TYPE":"U","NORAD_CAT_ID":30798,"ELEMENT_SET_NO":999,"REV_AT_EPOCH":6515,"BSTAR":0,"MEAN_MOTION_DOT":-1.02e-6,"MEAN_MOTION_DDOT":0},{"OBJECT_NAME":"FGRST (GLAST)","OBJECT_ID":"2008-029A","EPOCH":"2026-03-28T13:08:25.780704","MEAN_MOTION":15.23470437,"ECCENTRICITY":0.0008617,"INCLINATION":25.5832,"RA_OF_ASC_NODE":44.2103,"ARG_OF_PERICENTER":94.4393,"MEAN_ANOMALY":265.713,"EPHEMERIS_TYPE":0,"CLASSIFICATION_TYPE":"U","NORAD_CAT_ID":33053,"ELEMENT_SET_NO":999,"REV_AT_EPOCH":98352,"BSTAR":0.0001632611,"MEAN_MOTION_DOT":4.345e-5,"MEAN_MOTION_DDOT":0}]
